{
    "links": {
        "self": "http://www.neowsapp.com/rest/v1/neo/3843770?api_key=iIulBulltgU6a56xZRHN4H3l9WmuAYTsLGpBGhQ2"
    },
    "id": "3843770",
    "neo_reference_id": "3843770",
    "name": "(2019 RQ)",
    "designation": "2019 RQ",
    "nasa_jpl_url": "http://ssd.jpl.nasa.gov/sbdb.cgi?sstr=3843770",
    "absolute_magnitude_h": 30.6,
    "estimated_diameter": {
        "kilometers": {
            "estimated_diameter_min": 0.0020162992,
            "estimated_diameter_max": 0.0045085821
        },
        "meters": {
            "estimated_diameter_min": 2.0162991944,
            "estimated_diameter_max": 4.5085820617
        },
        "miles": {
            "estimated_diameter_min": 0.0012528698,
            "estimated_diameter_max": 0.0028015021
        },
        "feet": {
            "estimated_diameter_min": 6.615155049,
            "estimated_diameter_max": 14.7919363714
        }
    },
    "is_potentially_hazardous_asteroid": false,
    "close_approach_data": [
        {
            "close_approach_date": "2019-09-02",
            "close_approach_date_full": "2019-Sep-02 09:34",
            "epoch_date_close_approach": 1567416840000,
            "relative_velocity": {
                "kilometers_per_second": "12.7751885488",
                "kilometers_per_hour": "45990.6787755018",
                "miles_per_hour": "28576.8192647"
            },
            "miss_distance": {
                "astronomical": "0.0003662998",
                "lunar": "0.1424906222",
                "kilometers": "54797.669861426",
                "miles": "34049.6931466388"
            },
            "orbiting_body": "Moon"
        },
        {
            "close_approach_date": "2019-09-02",
            "close_approach_date_full": "2019-Sep-02 16:45",
            "epoch_date_close_approach": 1567442700000,
            "relative_velocity": {
                "kilometers_per_second": "13.2159374513",
                "kilometers_per_hour": "47577.374824527",
                "miles_per_hour": "29562.7304847179"
            },
            "miss_distance": {
                "astronomical": "0.0007386555",
                "lunar": "0.2873369895",
                "kilometers": "110501.289463785",
                "miles": "68662.317358833"
            },
            "orbiting_body": "Earth"
        },
        {
            "close_approach_date": "2022-09-12",
            "close_approach_date_full": "2022-Sep-12 15:31",
            "epoch_date_close_approach": 1662996660000,
            "relative_velocity": {
                "kilometers_per_second": "16.2596297397",
                "kilometers_per_hour": "58534.6670630384",
                "miles_per_hour": "36371.1657648085"
            },
            "miss_distance": {
                "astronomical": "0.1131869478",
                "lunar": "44.0297226942",
                "kilometers": "16932526.302681186",
                "miles": "10521383.9614289268"
            },
            "orbiting_body": "Earth"
        }
    ],
    "orbital_data": {
        "orbit_id": "2",
        "orbit_determination_date": "2019-09-09 05:44:20",
        "first_observation_date": "2019-09-03",
        "last_observation_date": "2019-09-06",
        "data_arc_in_days": 3,
        "observations_used": 20,
        "orbit_uncertainty": "7",
        "minimum_orbit_intersection": ".000484151",
        "jupiter_tisserand_invariant": "3.522",
        "epoch_osculation": "2459000.5",
        "eccentricity": ".5806011319696227",
        "semi_major_axis": "2.088263822269348",
        "inclination": "2.958781055079913",
        "ascending_node_longitude": "338.9383458012309",
        "orbital_period": "1102.240777901888",
        "perihelion_distance": ".8758154832085536",
        "perihelion_argument": "310.4931618029204",
        "aphelion_distance": "3.300712161330143",
        "perihelion_time": "2458692.572079356059",
        "mean_anomaly": "100.5715390450614",
        "mean_motion": ".326607404858727",
        "equinox": "J2000",
        "orbit_class": {
            "orbit_class_type": "APO",
            "orbit_class_description": "Near-Earth asteroid orbits which cross the Earth’s orbit similar to that of 1862 Apollo",
            "orbit_class_range": "a (semi-major axis) > 1.0 AU; q (perihelion) < 1.017 AU"
        }
    },
    "is_sentry_object": false
}